NORAD_CAT_ID,OBJECT_NAME,OBJECT_TYPE,EPOCH,MEAN_MOTION,ECCENTRICITY,INCLINATION,RA_OF_ASC_NODE,ARG_OF_PERICENTER,MEAN_ANOMALY,BSTAR,MEAN_MOTION_DOT,MEAN_MOTION_DDOT,TLE_LINE0,TLE_LINE1,TLE_LINE2,SEMIMAJOR_AXIS,PERIOD,APOGEE,PERIGEE,DECAYED
53247.0,STARLINK-4061,PAYLOAD,2023-06-16 12:58:06,15.08846083,9.43e-05,53.2162,355.676,86.4215,273.6885,0.00017153,2.444e-05,0.0,0 STARLINK-4061,1 53247U 22086F   23167.54034838  .00002444  00000-0  17153-3 0  9997,2 53247  53.2162 355.6760 0000943  86.4215 273.6885 15.08846083 50777,6917.862,95.437,540.379,539.074,0.0
53247.0,STARLINK-4061,PAYLOAD,2023-06-16 19:19:38,15.08858628,0.0001104,53.2163,354.4867,88.676,271.4359,0.00036367,5.508e-05,0.0,0 STARLINK-4061,1 53247U 22086F   23167.80530245  .00005508  00000-0  36367-3 0  9991,2 53247  53.2163 354.4867 0001104  88.6760 271.4359 15.08858628 50817,6917.823,95.436,540.452,538.925,0.0
53247.0,STARLINK-4061,PAYLOAD,2023-06-16 22:30:24,15.08863027,0.0001149,53.2166,353.8929,88.0884,272.024,0.00043129,6.587e-05,0.0,0 STARLINK-4061,1 53247U 22086F   23167.93778019  .00006587  00000-0  43129-3 0  9990,2 53247  53.2166 353.8929 0001149  88.0884 272.0240 15.08863027 50334,6917.81,95.436,540.47,538.88,0.0
53247.0,STARLINK-4061,PAYLOAD,2023-06-17 04:51:57,15.08847166,0.0001501,53.2166,352.7021,89.0495,271.0669,9.7006e-06,-1.34e-06,0.0,0 STARLINK-4061,1 53247U 22086F   23168.20274336 -.00000134  00000-0  97006-5 0  9992,2 53247  53.2166 352.7021 0001501  89.0495 271.0669 15.08847166 50370,6917.858,95.437,540.762,538.685,0.0
53247.0,STARLINK-4061,PAYLOAD,2023-06-17 12:48:52,15.08848815,9.66e-05,53.2162,351.2151,108.3128,251.7969,3.8976e-05,3.33e-06,0.0,0 STARLINK-4061,1 53247U 22086F   23168.53393878  .00000333  00000-0  38976-4 0  9991,2 53247  53.2162 351.2151 0000966 108.3128 251.7969 15.08848815 50927,6917.853,95.437,540.387,539.05,0.0
53247.0,STARLINK-4061,PAYLOAD,2023-06-17 20:45:47,15.08854597,0.0001151,53.2164,349.7283,89.7504,270.362,0.00027785,4.139e-05,0.0,0 STARLINK-4061,1 53247U 22086F   23168.86513638  .00004139  00000-0  27785-3 0  9998,2 53247  53.2164 349.7283 0001151  89.7504 270.3620 15.08854597 50974,6917.836,95.437,540.497,538.905,0.0
53247.0,STARLINK-4061,PAYLOAD,2023-06-18 04:42:43,15.08849565,8.96e-05,53.2171,348.2427,86.7188,273.3907,0.00020758,3.018e-05,0.0,0 STARLINK-4061,1 53247U 22086F   23169.19633621  .00003018  00000-0  20758-3 0  9998,2 53247  53.2171 348.2427 0000896  86.7188 273.3907 15.08849565 50527,6917.851,95.437,540.336,539.096,0.0
53247.0,STARLINK-4061,PAYLOAD,2023-06-18 19:01:12,15.08829396,0.0002349,53.2181,345.5661,95.0412,265.0848,-0.00012147,-2.221e-05,0.0,0 STARLINK-4061,1 53247U 22086F   23169.79250803 -.00002221  00000-0 -12147-3 0  9991,2 53247  53.2181 345.5661 0002349  95.0412 265.0848 15.08829396 50618,6917.913,95.438,541.403,538.153,0.0
53247.0,STARLINK-4061,PAYLOAD,2023-06-18 20:36:36,15.08818258,0.0001411,53.2165,345.2702,107.9762,252.1383,-0.00041702,-6.915e-05,0.0,0 STARLINK-4061,1 53247U 22086F   23169.85875045 -.00006915  00000-0 -41702-3 0  9992,2 53247  53.2165 345.2702 0001411 107.9762 252.1383 15.08818258 51126,6917.947,95.439,540.788,538.836,0.0
53247.0,STARLINK-4061,PAYLOAD,2023-06-19 04:33:31,15.08834383,9.94e-05,53.2177,343.7831,98.304,261.8064,-0.00010248,-1.918e-05,0.0,0 STARLINK-4061,1 53247U 22086F   23170.18994921 -.00001918  00000-0 -10248-3 0  9994,2 53247  53.2177 343.7831 0000994  98.3040 261.8064 15.08834383 50671,6917.898,95.438,540.45,539.075,0.0
53247.0,STARLINK-4061,PAYLOAD,2023-06-20 04:24:18,15.0884305,8.48e-05,53.2169,339.3218,81.0417,279.0672,0.00032502,4.889e-05,0.0,0 STARLINK-4061,1 53247U 22086F   23171.18355171  .00004889  00000-0  32502-3 0  9998,2 53247  53.2169 339.3218 0000848  81.0417 279.0672 15.08843050 50821,6917.871,95.437,540.323,539.149,0.0
53247.0,STARLINK-4061,PAYLOAD,2023-06-20 12:21:15,15.08834085,0.000104,53.2169,337.8353,80.7939,279.3171,0.00022589,3.308e-05,0.0,0 STARLINK-4061,1 53247U 22086F   23171.51475813  .00003308  00000-0  22589-3 0  9990,2 53247  53.2169 337.8353 0001040  80.7939 279.3171 15.08834085 51370,6917.898,95.438,540.483,539.044,0.0
53247.0,STARLINK-4061,PAYLOAD,2023-06-20 17:07:24,15.08838634,0.000118,53.2182,336.944,81.1602,278.9524,0.00025487,3.771e-05,0.0,0 STARLINK-4061,1 53247U 22086F   23171.71347734  .00003771  00000-0  25487-3 0  9996,2 53247  53.2182 336.9440 0001180  81.1602 278.9524 15.08838634 50908,6917.885,95.438,540.566,538.933,0.0
53247.0,STARLINK-4061,PAYLOAD,2023-06-20 20:18:10,15.0884608,9.48e-05,53.2169,336.3484,82.1651,277.9449,0.00037455,5.679e-05,0.0,0 STARLINK-4061,1 53247U 22086F   23171.84595407  .00005679  00000-0  37455-3 0  9999,2 53247  53.2169 336.3484 0000948  82.1651 277.9449 15.08846080 51428,6917.862,95.437,540.383,539.071,0.0
53247.0,STARLINK-4061,PAYLOAD,2023-06-21 10:36:38,15.08838299,8.77e-05,53.2159,333.6707,95.403,264.7062,0.00011413,1.529e-05,0.0,0 STARLINK-4061,1 53247U 22086F   23172.44211693  .00001529  00000-0  11413-3 0  9994,2 53247  53.2159 333.6707 0000877  95.4030 264.7062 15.08838299 51512,6917.886,95.438,540.357,539.144,0.0
53247.0,STARLINK-4061,PAYLOAD,2023-06-21 16:58:11,15.08842779,9.58e-05,53.2171,332.4835,81.1972,278.9128,0.00022917,3.362e-05,0.0,0 STARLINK-4061,1 53247U 22086F   23172.70707726  .00003362  00000-0  22917-3 0  9998,2 53247  53.2171 332.4835 0000958  81.1972 278.9128 15.08842779 51554,6917.872,95.437,540.4,539.074,0.0
53247.0,STARLINK-4061,PAYLOAD,2023-06-22 10:27:26,15.08839487,9.85e-05,53.2168,329.2127,82.0533,278.0571,0.00017485,2.496e-05,0.0,0 STARLINK-4061,1 53247U 22086F   23173.43571961  .00002496  00000-0  17485-3 0  9990,2 53247  53.2168 329.2127 0000985  82.0533 278.0571 15.08839487 51163,6917.882,95.438,540.428,539.066,0.0
53247.0,STARLINK-4061,PAYLOAD,2023-06-23 16:39:45,15.08849256,0.0001034,53.2177,323.5625,92.4122,267.6988,0.00019581,2.831e-05,0.0,0 STARLINK-4061,1 53247U 22086F   23174.69427459  .00002831  00000-0  19581-3 0  9993,2 53247  53.2177 323.5625 0001034  92.4122 267.6988 15.08849256 51350,6917.852,95.437,540.432,539.002,0.0
53247.0,STARLINK-4061,PAYLOAD,2023-06-24 16:30:32,15.08842996,0.0001042,53.2176,319.1031,89.4016,270.7095,0.00010207,1.337e-05,0.0,0 STARLINK-4061,1 53247U 22086F   23175.68787784  .00001337  00000-0  10207-3 0  9999,2 53247  53.2176 319.1031 0001042  89.4016 270.7095 15.08842996 51503,6917.871,95.437,540.457,539.015,0.0
53247.0,STARLINK-4061,PAYLOAD,2023-06-25 02:02:52,15.08828629,0.0001032,53.2182,317.3171,89.0251,271.0859,0.00022185,3.244e-05,0.0,0 STARLINK-4061,1 53247U 22086F   23176.08532534  .00003244  00000-0  22185-3 0  9992,2 53247  53.2182 317.3171 0001032  89.0251 271.0859 15.08828629 51566,6917.915,95.438,540.494,539.066,0.0
53247.0,STARLINK-4061,PAYLOAD,2023-06-25 08:24:24,15.08837517,0.0001173,53.2171,316.1277,92.2632,267.8494,2.2367e-05,6.8e-07,0.0,0 STARLINK-4061,1 53247U 22086F   23176.35028131  .00000068  00000-0  22367-4 0  9999,2 53247  53.2171 316.1277 0001173  92.2632 267.8494 15.08837517 51602,6917.888,95.438,540.564,538.942,0.0
53247.0,STARLINK-4061,PAYLOAD,2023-06-25 16:21:19,15.08846866,9.47e-05,53.2177,314.6425,96.4357,263.6743,0.00010536,1.39e-05,0.0,0 STARLINK-4061,1 53247U 22086F   23176.68147456  .00001390  00000-0  10536-3 0  9990,2 53247  53.2177 314.6425 0000947  96.4357 263.6743 15.08846866 51657,6917.859,95.437,540.38,539.069,0.0
53247.0,STARLINK-4061,PAYLOAD,2023-06-26 09:50:34,15.08834335,0.000167,53.218,311.3719,97.0046,263.1136,-2.7379e-05,-7.24e-06,0.0,0 STARLINK-4061,1 53247U 22086F   23177.41012485 -.00000724  00000-0 -27379-4 0  9991,2 53247  53.2180 311.3719 0001670  97.0046 263.1136 15.08834335 51768,6917.898,95.438,540.918,538.607,0.0
53247.0,STARLINK-4061,PAYLOAD,2023-06-27 16:02:54,15.08844969,0.0001061,53.2172,305.7223,84.0666,276.0447,0.00018361,2.636e-05,0.0,0 STARLINK-4061,1 53247U 22086F   23178.66868316  .00002636  00000-0  18361-3 0  9993,2 53247  53.2172 305.7223 0001061  84.0666 276.0447 15.08844969 51957,6917.865,95.437,540.464,538.996,0.0
53247.0,STARLINK-4061,PAYLOAD,2023-06-28 07:56:46,15.08837399,0.000108,53.2171,302.7493,81.1579,278.9535,0.00020735,3.013e-05,0.0,0 STARLINK-4061,1 53247U 22086F   23179.33108828  .00003013  00000-0  20735-3 0  9991,2 53247  53.2171 302.7493 0001080  81.1579 278.9535 15.08837399 52054,6917.888,95.438,540.5,539.006,0.0
53247.0,STARLINK-4061,PAYLOAD,2023-06-28 20:39:50,15.08848111,0.0001085,53.2165,300.3686,79.1943,280.9172,0.00023925,3.523e-05,0.0,0 STARLINK-4061,1 53247U 22086F   23179.86100298  .00003523  00000-0  23925-3 0  9992,2 53247  53.2165 300.3686 0001085  79.1943 280.9172 15.08848111 52135,6917.856,95.437,540.471,538.97,0.0
53247.0,STARLINK-4061,PAYLOAD,2023-06-29 07:47:32,15.0883977,0.0001395,53.216,298.2815,123.0055,237.1071,5.2839e-05,5.53e-06,0.0,0 STARLINK-4061,1 53247U 22086F   23180.32468529  .00000553  00000-0  52839-4 0  9996,2 53247  53.2160 298.2815 0001395 123.0055 237.1071 15.08839770 52207,6917.881,95.438,540.711,538.781,0.0
53247.0,STARLINK-4061,PAYLOAD,2023-06-30 17:10:37,15.08856551,0.0001023,53.2171,292.0429,84.5478,275.5631,0.00024958,3.688e-05,0.0,0 STARLINK-4061,1 53247U 22086F   23181.71571608  .00003688  00000-0  24958-3 0  9995,2 53247  53.2171 292.0429 0001023  84.5478 275.5631 15.08856551 52417,6917.83,95.437,540.402,538.987,0.0
53247.0,STARLINK-4061,PAYLOAD,2023-07-01 07:29:07,15.08834495,9.03e-05,53.2169,289.3661,96.2406,263.8689,5.2156e-05,5.42e-06,0.0,0 STARLINK-4061,1 53247U 22086F   23182.31188725  .00000542  00000-0  52156-4 0  9994,2 53247  53.2169 289.3661 0000903  96.2406 263.8689 15.08834495 52504,6917.897,95.438,540.387,539.138,0.0
53247.0,STARLINK-4061,PAYLOAD,2023-07-02 10:30:39,15.08847162,9.87e-05,53.2172,284.311,96.5861,263.5244,0.00013774,1.905e-05,0.0,0 STARLINK-4061,1 53247U 22086F   23183.43796098  .00001905  00000-0  13774-3 0  9992,2 53247  53.2172 284.3110 0000987  96.5861 263.5244 15.08847162 52679,6917.858,95.437,540.406,539.041,0.0
